{
  "type": "FeatureCollection",
  "features": [
    {
      "type": "Feature",
      "properties": {
        "norad_id": 32089,
        "name": "FENGYUN 1C DEB",
        "group": "fengyun-1c-debris",
        "lat": 78.26151416921572,
        "lon": -44.41690802761602,
        "alt_km": 758.4284689744354,
        "timestamp": "2025-12-23T11:34:48.448010+00:00",
        "meta_object_name": "FENGYUN 1C DEB",
        "meta_object_id": "1999-025CQF",
        "meta_epoch": "2025-12-16T17:52:20.830656",
        "meta_mean_motion": 14.14077902,
        "meta_eccentricity": 0.01123897,
        "meta_inclination": 98.6547,
        "meta_ra_of_asc_node": 356.1944,
        "meta_arg_of_pericenter": 112.6503,
        "meta_mean_anomaly": 248.6602,
        "meta_ephemeris_type": 0,
        "meta_classification_type": "U",
        "meta_norad_cat_id": 32089,
        "meta_element_set_no": 999,
        "meta_rev_at_epoch": 63272,
        "meta_bstar": 0.00051322825,
        "meta_mean_motion_dot": 9.96e-06,
        "meta_mean_motion_ddot": 0,
        "tle_line1": "1 32089U 99025CQF 25350.74468554  .00000996  00000+0  51323-3 0  9995",
        "tle_line2": "2 32089  98.6547 356.1944 0112389 112.6503 248.6602 14.14077902632720"
      },
      "geometry": {
        "type": "Point",
        "coordinates": [
          -44.41690802761602,
          78.26151416921572
        ]
      }
    },
    {
      "type": "Feature",
      "properties": {
        "norad_id": 32093,
        "name": "FENGYUN 1C DEB",
        "group": "fengyun-1c-debris",
        "lat": 9.585024614997936,
        "lon": 32.23807149265996,
        "alt_km": 817.548765357611,
        "timestamp": "2025-12-23T11:34:48.448020+00:00",
        "meta_object_name": "FENGYUN 1C DEB",
        "meta_object_id": "1999-025CQK",
        "meta_epoch": "2025-12-22T13:04:18.910848",
        "meta_mean_motion": 14.37631207,
        "meta_eccentricity": 0.00789724,
        "meta_inclination": 98.9187,
        "meta_ra_of_asc_node": 209.746,
        "meta_arg_of_pericenter": 324.7154,
        "meta_mean_anomaly": 34.8819,
        "meta_ephemeris_type": 0,
        "meta_classification_type": "U",
        "meta_norad_cat_id": 32093,
        "meta_element_set_no": 999,
        "meta_rev_at_epoch": 96658,
        "meta_bstar": 0.00037654555,
        "meta_mean_motion_dot": 1.123e-05,
        "meta_mean_motion_ddot": 0,
        "tle_line1": "1 32093U 99025CQK 25356.54466332  .00001123  00000+0  37655-3 0  9991",
        "tle_line2": "2 32093  98.9187 209.7460 0078972 324.7154  34.8819 14.37631207966589"
      },
      "geometry": {
        "type": "Point",
        "coordinates": [
          32.23807149265996,
          9.585024614997936
        ]
      }
    },
    {
      "type": "Feature",
      "properties": {
        "norad_id": 32094,
        "name": "FENGYUN 1C DEB",
        "group": "fengyun-1c-debris",
        "lat": -1.0552995541958576,
        "lon": -12.232170485501797,
        "alt_km": 872.7642601278467,
        "timestamp": "2025-12-23T11:34:48.448029+00:00",
        "meta_object_name": "FENGYUN 1C DEB",
        "meta_object_id": "1999-025CQL",
        "meta_epoch": "2025-12-21T05:06:54.522720",
        "meta_mean_motion": 14.10737989,
        "meta_eccentricity": 0.00341017,
        "meta_inclination": 98.7448,
        "meta_ra_of_asc_node": 345.3972,
        "meta_arg_of_pericenter": 243.828,
        "meta_mean_anomaly": 115.9383,
        "meta_ephemeris_type": 0,
        "meta_classification_type": "U",
        "meta_norad_cat_id": 32094,
        "meta_element_set_no": 999,
        "meta_rev_at_epoch": 94484,
        "meta_bstar": 0.00027112552,
        "meta_mean_motion_dot": 4.44e-06,
        "meta_mean_motion_ddot": 0,
        "tle_line1": "1 32094U 99025CQL 25355.21313105  .00000444  00000+0  27113-3 0  9997",
        "tle_line2": "2 32094  98.7448 345.3972 0034101 243.8280 115.9383 14.10737989944847"
      },
      "geometry": {
        "type": "Point",
        "coordinates": [
          -12.232170485501797,
          -1.0552995541958576
        ]
      }
    },
    {
      "type": "Feature",
      "properties": {
        "norad_id": 32095,
        "name": "FENGYUN 1C DEB",
        "group": "fengyun-1c-debris",
        "lat": 14.877229157798094,
        "lon": 10.461105852109712,
        "alt_km": 799.9509889357441,
        "timestamp": "2025-12-23T11:34:48.448038+00:00",
        "meta_object_name": "FENGYUN 1C DEB",
        "meta_object_id": "1999-025CQM",
        "meta_epoch": "2025-12-19T07:27:26.684928",
        "meta_mean_motion": 14.16046866,
        "meta_eccentricity": 0.0079063,
        "meta_inclination": 98.6406,
        "meta_ra_of_asc_node": 8.7292,
        "meta_arg_of_pericenter": 73.5373,
        "meta_mean_anomaly": 287.4472,
        "meta_ephemeris_type": 0,
        "meta_classification_type": "U",
        "meta_norad_cat_id": 32095,
        "meta_element_set_no": 999,
        "meta_rev_at_epoch": 94910,
        "meta_bstar": 0.00022441,
        "meta_mean_motion_dot": 4.15e-06,
        "meta_mean_motion_ddot": 0,
        "tle_line1": "1 32095U 99025CQM 25353.31072552  .00000415  00000+0  22441-3 0  9992",
        "tle_line2": "2 32095  98.6406   8.7292 0079063  73.5373 287.4472 14.16046866949104"
      },
      "geometry": {
        "type": "Point",
        "coordinates": [
          10.461105852109712,
          14.877229157798094
        ]
      }
    },
    {
      "type": "Feature",
      "properties": {
        "norad_id": 32096,
        "name": "FENGYUN 1C DEB",
        "group": "fengyun-1c-debris",
        "lat": -68.12692410832877,
        "lon": -177.24028982413347,
        "alt_km": 1008.7999212934319,
        "timestamp": "2025-12-23T11:34:48.448047+00:00",
        "meta_object_name": "FENGYUN 1C DEB",
        "meta_object_id": "1999-025CQN",
        "meta_epoch": "2025-12-19T20:01:42.439872",
        "meta_mean_motion": 13.90214734,
        "meta_eccentricity": 0.01346293,
        "meta_inclination": 99.0729,
        "meta_ra_of_asc_node": 22.6552,
        "meta_arg_of_pericenter": 120.8024,
        "meta_mean_anomaly": 240.6466,
        "meta_ephemeris_type": 0,
        "meta_classification_type": "U",
        "meta_norad_cat_id": 32096,
        "meta_element_set_no": 999,
        "meta_rev_at_epoch": 92960,
        "meta_bstar": 0.00089068221,
        "meta_mean_motion_dot": 1.144e-05,
        "meta_mean_motion_ddot": 0,
        "tle_line1": "1 32096U 99025CQN 25353.83451898  .00001144  00000+0  89068-3 0  9992",
        "tle_line2": "2 32096  99.0729  22.6552 0134629 120.8024 240.6466 13.90214734929600"
      },
      "geometry": {
        "type": "Point",
        "coordinates": [
          -177.24028982413347,
          -68.12692410832877
        ]
      }
    },
    {
      "type": "Feature",
      "properties": {
        "norad_id": 32098,
        "name": "FENGYUN 1C DEB",
        "group": "fengyun-1c-debris",
        "lat": 7.086304034816078,
        "lon": -11.43007657934176,
        "alt_km": 803.0505615250167,
        "timestamp": "2025-12-23T11:34:48.448056+00:00",
        "meta_object_name": "FENGYUN 1C DEB",
        "meta_object_id": "1999-025CQQ",
        "meta_epoch": "2025-12-17T05:04:00.480288",
        "meta_mean_motion": 14.20263212,
        "meta_eccentricity": 0.01958107,
        "meta_inclination": 98.6122,
        "meta_ra_of_asc_node": 343.5394,
        "meta_arg_of_pericenter": 106.9951,
        "meta_mean_anomaly": 255.2785,
        "meta_ephemeris_type": 0,
        "meta_classification_type": "U",
        "meta_norad_cat_id": 32098,
        "meta_element_set_no": 999,
        "meta_rev_at_epoch": 64291,
        "meta_bstar": 0.00022141039,
        "meta_mean_motion_dot": 5.31e-06,
        "meta_mean_motion_ddot": 0,
        "tle_line1": "1 32098U 99025CQQ 25351.21111667  .00000531  00000+0  22141-3 0  9999",
        "tle_line2": "2 32098  98.6122 343.5394 0195810 106.9951 255.2785 14.20263212642917"
      },
      "geometry": {
        "type": "Point",
        "coordinates": [
          -11.43007657934176,
          7.086304034816078
        ]
      }
    },
    {
      "type": "Feature",
      "properties": {
        "norad_id": 32099,
        "name": "FENGYUN 1C DEB",
        "group": "fengyun-1c-debris",
        "lat": 70.1895197543008,
        "lon": 172.04691158697844,
        "alt_km": 1094.55171872732,
        "timestamp": "2025-12-23T11:34:48.448065+00:00",
        "meta_object_name": "FENGYUN 1C DEB",
        "meta_object_id": "1999-025CQR",
        "meta_epoch": "2025-12-13T04:24:17.454240",
        "meta_mean_motion": 13.91775545,
        "meta_eccentricity": 0.03428827,
        "meta_inclination": 98.2819,
        "meta_ra_of_asc_node": 318.9761,
        "meta_arg_of_pericenter": 273.8166,
        "meta_mean_anomaly": 102.561,
        "meta_ephemeris_type": 0,
        "meta_classification_type": "U",
        "meta_norad_cat_id": 32099,
        "meta_element_set_no": 999,
        "meta_rev_at_epoch": 64694,
        "meta_bstar": 0.0015539286,
        "meta_mean_motion_dot": 3.154e-05,
        "meta_mean_motion_ddot": 0,
        "tle_line1": "1 32099U 99025CQR 25347.18353535  .00003154  00000+0  15539-2 0  9999",
        "tle_line2": "2 32099  98.2819 318.9761 0342882 273.8166 102.5610 13.91775545646948"
      },
      "geometry": {
        "type": "Point",
        "coordinates": [
          172.04691158697844,
          70.1895197543008
        ]
      }
    }
  ]
}